{"type":"FeatureCollection","features":[{"type":"Feature","geometry":{"type":"Point","coordinates":[-79.76569,43.25946]},"properties":{"address":"hub_1042","latitude":"43.25946","longitude":"-79.76569","name":"Van Wagner's Beach","capacity":"0","operator":"Hamilton Bike Share"}}]}
{"type":"FeatureCollection","features":[{"type":"Feature","geometry":{"type":"Point","coordinates":[-79.86007,43.25278]},"properties":{"address":"hub_1063","latitude":"43.25278","longitude":"-79.86007","name":"Main and Wellington","capacity":"8","operator":"Hamilton Bike Share"}}]}
{"type":"FeatureCollection","features":[{"type":"Feature","geometry":{"type":"Point","coordinates":[-79.84052,43.24332]},"properties":{"address":"hub_1252","latitude":"43.24332","longitude":"-79.84052","name":"Cumberland at Blake","capacity":"0","operator":"Hamilton Bike Share"}}]}
{"type":"FeatureCollection","features":[{"type":"Feature","geometry":{"type":"Point","coordinates":[-79.84274,43.24852]},"properties":{"address":"hub_1253","latitude":"43.24852","longitude":"-79.84274","name":"Main at Holton Ave S","capacity":"0","operator":"Hamilton Bike Share"}}]}
{"type":"FeatureCollection","features":[{"type":"Feature","geometry":{"type":"Point","coordinates":[-79.81803,43.24751]},"properties":{"address":"hub_1287","latitude":"43.24751","longitude":"-79.81803","name":"Cannon at Ottawa","capacity":"10","operator":"Hamilton Bike Share"}}]}
{"type":"FeatureCollection","features":[{"type":"Feature","geometry":{"type":"Point","coordinates":[-79.86442,43.25523]},"properties":{"address":"hub_1397","latitude":"43.25523","longitude":"-79.86442","name":"King at Mary","capacity":"7","operator":"Hamilton Bike Share"}}]}
{"type":"FeatureCollection","features":[{"type":"Feature","geometry":{"type":"Point","coordinates":[-79.83436,43.26046]},"properties":{"address":"hub_1468","latitude":"43.26046","longitude":"-79.83436","name":"270 Sherman","capacity":"0","operator":"Hamilton Bike Share"}}]}
{"type":"FeatureCollection","features":[{"type":"Feature","geometry":{"type":"Point","coordinates":[-79.91583,43.26475]},"properties":{"address":"hub_2570","latitude":"43.26475","longitude":"-79.91583","name":"Athletic Centre Bike Racks","capacity":"5","operator":"Hamilton Bike Share"}}]}
{"type":"FeatureCollection","features":[{"type":"Feature","geometry":{"type":"Point","coordinates":[-79.95372,43.26597]},"properties":{"address":"hub_2868","latitude":"43.26597","longitude":"-79.95372","name":"King Street Dundas","capacity":"0","operator":"Hamilton Bike Share"}}]}
{"type":"FeatureCollection","features":[{"type":"Feature","geometry":{"type":"Point","coordinates":[-79.94768,43.26543]},"properties":{"address":"hub_2869","latitude":"43.26543","longitude":"-79.94768","name":"Cootes Drive Dundas","capacity":"0","operator":"Hamilton Bike Share"}}]}
{"type":"FeatureCollection","features":[{"type":"Feature","geometry":{"type":"Point","coordinates":[-79.84367,43.26536]},"properties":{"address":"hub_2915","latitude":"43.26536","longitude":"-79.84367","name":"Mars at Wentworth - ERI01","capacity":"0","operator":"Hamilton Bike Share"}}]}
{"type":"FeatureCollection","features":[{"type":"Feature","geometry":{"type":"Point","coordinates":[-79.83626,43.25633]},"properties":{"address":"hub_2916","latitude":"43.25633","longitude":"-79.83626","name":"Sherman at Barton - ERI02","capacity":"0","operator":"Hamilton Bike Share"}}]}
{"type":"FeatureCollection","features":[{"type":"Feature","geometry":{"type":"Point","coordinates":[-79.83147,43.25526]},"properties":{"address":"hub_2917","latitude":"43.25526","longitude":"-79.83147","name":"Barton at Lottridge - ERI03","capacity":"0","operator":"Hamilton Bike Share"}}]}
{"type":"FeatureCollection","features":[{"type":"Feature","geometry":{"type":"Point","coordinates":[-79.82218,43.25288]},"properties":{"address":"hub_2918","latitude":"43.25288","longitude":"-79.82218","name":"Barton and Belview - ERI05","capacity":"0","operator":"Hamilton Bike Share"}}]}
{"type":"FeatureCollection","features":[{"type":"Feature","geometry":{"type":"Point","coordinates":[-79.81603,43.25148]},"properties":{"address":"hub_2919","latitude":"43.25148","longitude":"-79.81603","name":"Barton at Ottawa - ERI06","capacity":"0","operator":"Hamilton Bike Share"}}]}
{"type":"FeatureCollection","features":[{"type":"Feature","geometry":{"type":"Point","coordinates":[-79.81921,43.24447]},"properties":{"address":"hub_2920","latitude":"43.24447","longitude":"-79.81921","name":"Ottawa at Dunsmure - ERI07","capacity":"7","operator":"Hamilton Bike Share"}}]}
{"type":"FeatureCollection","features":[{"type":"Feature","geometry":{"type":"Point","coordinates":[-79.82499,43.24217]},"properties":{"address":"hub_2921","latitude":"43.24217","longitude":"-79.82499","name":"Maple at Rothsay - ERI08","capacity":"0","operator":"Hamilton Bike Share"}}]}
{"type":"FeatureCollection","features":[{"type":"Feature","geometry":{"type":"Point","coordinates":[-79.82689,43.24634]},"properties":{"address":"hub_2922","latitude":"43.24634","longitude":"-79.82689","name":"King at Dunsmure - ERI09","capacity":"0","operator":"Hamilton Bike Share"}}]}
{"type":"FeatureCollection","features":[{"type":"Feature","geometry":{"type":"Point","coordinates":[-79.83892,43.24943]},"properties":{"address":"hub_2923","latitude":"43.24943","longitude":"-79.83892","name":"Dunsmure at Sherman - ERI10","capacity":"0","operator":"Hamilton Bike Share"}}]}
{"type":"FeatureCollection","features":[{"type":"Feature","geometry":{"type":"Point","coordinates":[-79.8274,43.25114]},"properties":{"address":"hub_2924","latitude":"43.25114","longitude":"-79.8274","name":"King George","capacity":"0","operator":"Hamilton Bike Share"}}]}
{"type":"FeatureCollection","features":[{"type":"Feature","geometry":{"type":"Point","coordinates":[-79.82347,43.24897]},"properties":{"address":"hub_2925","latitude":"43.24897","longitude":"-79.82347","name":"Belview at Cannon - ERI12","capacity":"0","operator":"Hamilton Bike Share"}}]}
{"type":"FeatureCollection","features":[{"type":"Feature","geometry":{"type":"Point","coordinates":[-79.84239,43.25832]},"properties":{"address":"hub_2926","latitude":"43.25832","longitude":"-79.84239","name":"Westinghouse at Barton - ERI13","capacity":"0","operator":"Hamilton Bike Share"}}]}
{"type":"FeatureCollection","features":[{"type":"Feature","geometry":{"type":"Point","coordinates":[-79.87893,43.25851]},"properties":{"address":"hub_3885","latitude":"43.25851","longitude":"-79.87893","name":"George Street","capacity":"11","operator":"Hamilton Bike Share"}}]}
{"type":"FeatureCollection","features":[{"type":"Feature","geometry":{"type":"Point","coordinates":[-79.86765,43.25966]},"properties":{"address":"hub_4093","latitude":"43.25966","longitude":"-79.86765","name":"James at Vine","capacity":"10","operator":"Hamilton Bike Share"}}]}
{"type":"FeatureCollection","features":[{"type":"Feature","geometry":{"type":"Point","coordinates":[-79.86892,43.25627]},"properties":{"address":"hub_435","latitude":"43.25627","longitude":"-79.86892","name":"Gore Park","capacity":"16","operator":"Hamilton Bike Share"}}]}
{"type":"FeatureCollection","features":[{"type":"Feature","geometry":{"type":"Point","coordinates":[-79.86673,43.26183]},"properties":{"address":"hub_436","latitude":"43.26183","longitude":"-79.86673","name":"James North at Mulberry","capacity":"20","operator":"Hamilton Bike Share"}}]}
{"type":"FeatureCollection","features":[{"type":"Feature","geometry":{"type":"Point","coordinates":[-79.86355,43.25906]},"properties":{"address":"hub_527","latitude":"43.25906","longitude":"-79.86355","name":"Seedworks","capacity":"16","operator":"Hamilton Bike Share"}}]}
{"type":"FeatureCollection","features":[{"type":"Feature","geometry":{"type":"Point","coordinates":[-79.9498,43.26567]},"properties":{"address":"hub_530","latitude":"43.26567","longitude":"-79.9498","name":"Cootes at York and King","capacity":"15","operator":"Hamilton Bike Share"}}]}
{"type":"FeatureCollection","features":[{"type":"Feature","geometry":{"type":"Point","coordinates":[-79.91371,43.25807]},"properties":{"address":"hub_5333","latitude":"43.25807","longitude":"-79.91371","name":"Main at Dalewood","capacity":"7","operator":"Hamilton Bike Share"}}]}
{"type":"FeatureCollection","features":[{"type":"Feature","geometry":{"type":"Point","coordinates":[-79.9427,43.25948]},"properties":{"address":"hub_535","latitude":"43.25948","longitude":"-79.9427","name":"Osler at Grant","capacity":"12","operator":"Hamilton Bike Share"}}]}
{"type":"FeatureCollection","features":[{"type":"Feature","geometry":{"type":"Point","coordinates":[-79.93979,43.25208]},"properties":{"address":"hub_536","latitude":"43.25208","longitude":"-79.93979","name":"Main at Whitney","capacity":"11","operator":"Hamilton Bike Share"}}]}
{"type":"FeatureCollection","features":[{"type":"Feature","geometry":{"type":"Point","coordinates":[-79.93424,43.25723]},"properties":{"address":"hub_537","latitude":"43.25723","longitude":"-79.93424","name":"Osler at Main","capacity":"10","operator":"Hamilton Bike Share"}}]}
{"type":"FeatureCollection","features":[{"type":"Feature","geometry":{"type":"Point","coordinates":[-79.93538,43.2519]},"properties":{"address":"hub_538","latitude":"43.2519","longitude":"-79.93538","name":"Whitney at Lower Horning","capacity":"12","operator":"Hamilton Bike Share"}}]}
{"type":"FeatureCollection","features":[{"type":"Feature","geometry":{"type":"Point","coordinates":[-79.92982,43.2587]},"properties":{"address":"hub_539","latitude":"43.2587","longitude":"-79.92982","name":"Sanders at Binkley","capacity":"10","operator":"Hamilton Bike Share"}}]}
{"type":"FeatureCollection","features":[{"type":"Feature","geometry":{"type":"Point","coordinates":[-79.92653,43.25996]},"properties":{"address":"hub_540","latitude":"43.25996","longitude":"-79.92653","name":"Sanders at Hollywood","capacity":"13","operator":"Hamilton Bike Share"}}]}
{"type":"FeatureCollection","features":[{"type":"Feature","geometry":{"type":"Point","coordinates":[-79.88351,43.25647]},"properties":{"address":"hub_5402","latitude":"43.25647","longitude":"-79.88351","name":"Pearl Street Bridge","capacity":"12","operator":"Hamilton Bike Share"}}]}
{"type":"FeatureCollection","features":[{"type":"Feature","geometry":{"type":"Point","coordinates":[-79.90927,43.26056]},"properties":{"address":"hub_541","latitude":"43.26056","longitude":"-79.90927","name":"King at Cline","capacity":"13","operator":"Hamilton Bike Share"}}]}
{"type":"FeatureCollection","features":[{"type":"Feature","geometry":{"type":"Point","coordinates":[-79.91338,43.26225]},"properties":{"address":"hub_542","latitude":"43.26225","longitude":"-79.91338","name":"Sterling at Whitton","capacity":"12","operator":"Hamilton Bike Share"}}]}
{"type":"FeatureCollection","features":[{"type":"Feature","geometry":{"type":"Point","coordinates":[-79.88813,43.25672]},"properties":{"address":"hub_5426","latitude":"43.25672","longitude":"-79.88813","name":"Hill Street Park","capacity":"10","operator":"Hamilton Bike Share"}}]}
{"type":"FeatureCollection","features":[{"type":"Feature","geometry":{"type":"Point","coordinates":[-79.91023,43.26207]},"properties":{"address":"hub_543","latitude":"43.26207","longitude":"-79.91023","name":"Sterling at Haddon","capacity":"13","operator":"Hamilton Bike Share"}}]}
{"type":"FeatureCollection","features":[{"type":"Feature","geometry":{"type":"Point","coordinates":[-79.90352,43.2627]},"properties":{"address":"hub_544","latitude":"43.2627","longitude":"-79.90352","name":"Westdale Library","capacity":"9","operator":"Hamilton Bike Share"}}]}
{"type":"FeatureCollection","features":[{"type":"Feature","geometry":{"type":"Point","coordinates":[-79.92218,43.25225]},"properties":{"address":"hub_545","latitude":"43.25225","longitude":"-79.92218","name":"Emerson at Whitney","capacity":"10","operator":"Hamilton Bike Share"}}]}
{"type":"FeatureCollection","features":[{"type":"Feature","geometry":{"type":"Point","coordinates":[-79.92074,43.25467]},"properties":{"address":"hub_546","latitude":"43.25467","longitude":"-79.92074","name":"Rail Trail at Emerson","capacity":"17","operator":"Hamilton Bike Share"}}]}
{"type":"FeatureCollection","features":[{"type":"Feature","geometry":{"type":"Point","coordinates":[-79.90497,43.26191]},"properties":{"address":"hub_547","latitude":"43.26191","longitude":"-79.90497","name":"Westdale Village","capacity":"18","operator":"Hamilton Bike Share"}}]}
{"type":"FeatureCollection","features":[{"type":"Feature","geometry":{"type":"Point","coordinates":[-79.91663,43.25361]},"properties":{"address":"hub_548","latitude":"43.25361","longitude":"-79.91663","name":"Rail Trail at Stroud","capacity":"12","operator":"Hamilton Bike Share"}}]}
{"type":"FeatureCollection","features":[{"type":"Feature","geometry":{"type":"Point","coordinates":[-79.90784,43.2586]},"properties":{"address":"hub_549","latitude":"43.2586","longitude":"-79.90784","name":"Main at Columbia College","capacity":"12","operator":"Hamilton Bike Share"}}]}
{"type":"FeatureCollection","features":[{"type":"Feature","geometry":{"type":"Point","coordinates":[-79.87002,43.25192]},"properties":{"address":"hub_5497","latitude":"43.25192","longitude":"-79.87002","name":"The Chelsea Hub (Augusta near Hughson)","capacity":"0","operator":"Hamilton Bike Share"}}]}
{"type":"FeatureCollection","features":[{"type":"Feature","geometry":{"type":"Point","coordinates":[-79.90103,43.263]},"properties":{"address":"hub_550","latitude":"43.263","longitude":"-79.90103","name":"Longwood at King","capacity":"10","operator":"Hamilton Bike Share"}}]}
{"type":"FeatureCollection","features":[{"type":"Feature","geometry":{"type":"Point","coordinates":[-79.89932,43.26619]},"properties":{"address":"hub_551","latitude":"43.26619","longitude":"-79.89932","name":"Longwood at Edgevale","capacity":"15","operator":"Hamilton Bike Share"}}]}
{"type":"FeatureCollection","features":[{"type":"Feature","geometry":{"type":"Point","coordinates":[-79.90824,43.24611]},"properties":{"address":"hub_552","latitude":"43.24611","longitude":"-79.90824","name":"Chedoke Stairs","capacity":"11","operator":"Hamilton Bike Share"}}]}
{"type":"FeatureCollection","features":[{"type":"Feature","geometry":{"type":"Point","coordinates":[-79.90209,43.2596]},"properties":{"address":"hub_553","latitude":"43.2596","longitude":"-79.90209","name":"Main at Longwood","capacity":"0","operator":"Hamilton Bike Share"}}]}
{"type":"FeatureCollection","features":[{"type":"Feature","geometry":{"type":"Point","coordinates":[-79.89653,43.2622]},"properties":{"address":"hub_554","latitude":"43.2622","longitude":"-79.89653","name":"Macklin at King","capacity":"14","operator":"Hamilton Bike Share"}}]}
{"type":"FeatureCollection","features":[{"type":"Feature","geometry":{"type":"Point","coordinates":[-79.9013,43.25641]},"properties":{"address":"hub_555","latitude":"43.25641","longitude":"-79.9013","name":"McMaster Innovation Park","capacity":"17","operator":"Hamilton Bike Share"}}]}
{"type":"FeatureCollection","features":[{"type":"Feature","geometry":{"type":"Point","coordinates":[-79.89478,43.24649]},"properties":{"address":"hub_556","latitude":"43.24649","longitude":"-79.89478","name":"Dundurn Stairs","capacity":"12","operator":"Hamilton Bike Share"}}]}
{"type":"FeatureCollection","features":[{"type":"Feature","geometry":{"type":"Point","coordinates":[-79.89268,43.25147]},"properties":{"address":"hub_557","latitude":"43.25147","longitude":"-79.89268","name":"Dundurn at Aberdeen","capacity":"24","operator":"Hamilton Bike Share"}}]}
{"type":"FeatureCollection","features":[{"type":"Feature","geometry":{"type":"Point","coordinates":[-79.8909,43.25483]},"properties":{"address":"hub_558","latitude":"43.25483","longitude":"-79.8909","name":"Dundurn St S","capacity":"12","operator":"Hamilton Bike Share"}}]}
{"type":"FeatureCollection","features":[{"type":"Feature","geometry":{"type":"Point","coordinates":[-79.8892,43.25967]},"properties":{"address":"hub_559","latitude":"43.25967","longitude":"-79.8892","name":"Main at Dundurn","capacity":"11","operator":"Hamilton Bike Share"}}]}
{"type":"FeatureCollection","features":[{"type":"Feature","geometry":{"type":"Point","coordinates":[-79.88793,43.26247]},"properties":{"address":"hub_560","latitude":"43.26247","longitude":"-79.88793","name":"King at Dundurn","capacity":"10","operator":"Hamilton Bike Share"}}]}
{"type":"FeatureCollection","features":[{"type":"Feature","geometry":{"type":"Point","coordinates":[-79.88671,43.2534]},"properties":{"address":"hub_562","latitude":"43.2534","longitude":"-79.88671","name":"Charlton at Locke","capacity":"7","operator":"Hamilton Bike Share"}}]}
{"type":"FeatureCollection","features":[{"type":"Feature","geometry":{"type":"Point","coordinates":[-79.88506,43.25661]},"properties":{"address":"hub_563","latitude":"43.25661","longitude":"-79.88506","name":"Locke at Hunter","capacity":"10","operator":"Hamilton Bike Share"}}]}
{"type":"FeatureCollection","features":[{"type":"Feature","geometry":{"type":"Point","coordinates":[-79.88272,43.26284]},"properties":{"address":"hub_564","latitude":"43.26284","longitude":"-79.88272","name":"Locke at Napier","capacity":"12","operator":"Hamilton Bike Share"}}]}
{"type":"FeatureCollection","features":[{"type":"Feature","geometry":{"type":"Point","coordinates":[-79.88191,43.266]},"properties":{"address":"hub_565","latitude":"43.266","longitude":"-79.88191","name":"York at Inchbury","capacity":"13","operator":"Hamilton Bike Share"}}]}
{"type":"FeatureCollection","features":[{"type":"Feature","geometry":{"type":"Point","coordinates":[-79.8837,43.2488]},"properties":{"address":"hub_566","latitude":"43.2488","longitude":"-79.8837","name":"Aberdeen at Queen","capacity":"13","operator":"Hamilton Bike Share"}}]}
{"type":"FeatureCollection","features":[{"type":"Feature","geometry":{"type":"Point","coordinates":[-79.88152,43.252]},"properties":{"address":"hub_567","latitude":"43.252","longitude":"-79.88152","name":"Charlton at Queen","capacity":"10","operator":"Hamilton Bike Share"}}]}
{"type":"FeatureCollection","features":[{"type":"Feature","geometry":{"type":"Point","coordinates":[-79.88196,43.25403]},"properties":{"address":"hub_568","latitude":"43.25403","longitude":"-79.88196","name":"H.A.A.A. Park","capacity":"10","operator":"Hamilton Bike Share"}}]}
{"type":"FeatureCollection","features":[{"type":"Feature","geometry":{"type":"Point","coordinates":[-79.87889,43.25534]},"properties":{"address":"hub_569","latitude":"43.25534","longitude":"-79.87889","name":"Hunter at Hess","capacity":"16","operator":"Hamilton Bike Share"}}]}
{"type":"FeatureCollection","features":[{"type":"Feature","geometry":{"type":"Point","coordinates":[-79.87761,43.26184]},"properties":{"address":"hub_570","latitude":"43.26184","longitude":"-79.87761","name":"Queen at Peter","capacity":"12","operator":"Hamilton Bike Share"}}]}
{"type":"FeatureCollection","features":[{"type":"Feature","geometry":{"type":"Point","coordinates":[-79.88673,43.25251]},"properties":{"address":"hub_5702","latitude":"43.25251","longitude":"-79.88673","name":"Locke at Herkimer","capacity":"5","operator":"Hamilton Bike Share"}}]}
{"type":"FeatureCollection","features":[{"type":"Feature","geometry":{"type":"Point","coordinates":[-79.87787,43.26452]},"properties":{"address":"hub_571","latitude":"43.26452","longitude":"-79.87787","name":"Oxford at York","capacity":"13","operator":"Hamilton Bike Share"}}]}
{"type":"FeatureCollection","features":[{"type":"Feature","geometry":{"type":"Point","coordinates":[-79.87568,43.24976]},"properties":{"address":"hub_572","latitude":"43.24976","longitude":"-79.87568","name":"Durand Park","capacity":"15","operator":"Hamilton Bike Share"}}]}
{"type":"FeatureCollection","features":[{"type":"Feature","geometry":{"type":"Point","coordinates":[-79.87201,43.24962]},"properties":{"address":"hub_573","latitude":"43.24962","longitude":"-79.87201","name":"James S at Charlton","capacity":"10","operator":"Hamilton Bike Share"}}]}
{"type":"FeatureCollection","features":[{"type":"Feature","geometry":{"type":"Point","coordinates":[-79.87545,43.25385]},"properties":{"address":"hub_574","latitude":"43.25385","longitude":"-79.87545","name":"Bay at Bold","capacity":"12","operator":"Hamilton Bike Share"}}]}
{"type":"FeatureCollection","features":[{"type":"Feature","geometry":{"type":"Point","coordinates":[-79.87448,43.25611]},"properties":{"address":"hub_575","latitude":"43.25611","longitude":"-79.87448","name":"City Hall","capacity":"17","operator":"Hamilton Bike Share"}}]}
{"type":"FeatureCollection","features":[{"type":"Feature","geometry":{"type":"Point","coordinates":[-79.87343,43.25905]},"properties":{"address":"hub_576","latitude":"43.25905","longitude":"-79.87343","name":"Bay at York","capacity":"24","operator":"Hamilton Bike Share"}}]}
{"type":"FeatureCollection","features":[{"type":"Feature","geometry":{"type":"Point","coordinates":[-79.87183,43.26304]},"properties":{"address":"hub_577","latitude":"43.26304","longitude":"-79.87183","name":"Bay at Mulberry","capacity":"14","operator":"Hamilton Bike Share"}}]}
{"type":"FeatureCollection","features":[{"type":"Feature","geometry":{"type":"Point","coordinates":[-79.86783,43.26797]},"properties":{"address":"hub_578","latitude":"43.26797","longitude":"-79.86783","name":"Bay at Strachan","capacity":"10","operator":"Hamilton Bike Share"}}]}
{"type":"FeatureCollection","features":[{"type":"Feature","geometry":{"type":"Point","coordinates":[-79.87136,43.26931]},"properties":{"address":"hub_579","latitude":"43.26931","longitude":"-79.87136","name":"Bayfront Park","capacity":"10","operator":"Hamilton Bike Share"}}]}
{"type":"FeatureCollection","features":[{"type":"Feature","geometry":{"type":"Point","coordinates":[-79.86098,43.25894]},"properties":{"address":"hub_5790","latitude":"43.25894","longitude":"-79.86098","name":"Beasley Park","capacity":"10","operator":"Hamilton Bike Share"}}]}
{"type":"FeatureCollection","features":[{"type":"Feature","geometry":{"type":"Point","coordinates":[-79.92354,43.24962]},"properties":{"address":"hub_580","latitude":"43.24962","longitude":"-79.92354","name":"Ainslie at Emerson","capacity":"12","operator":"Hamilton Bike Share"}}]}
{"type":"FeatureCollection","features":[{"type":"Feature","geometry":{"type":"Point","coordinates":[-79.8604,43.26594]},"properties":{"address":"hub_581","latitude":"43.26594","longitude":"-79.8604","name":"Strachan at Mary","capacity":"0","operator":"Hamilton Bike Share"}}]}
{"type":"FeatureCollection","features":[{"type":"Feature","geometry":{"type":"Point","coordinates":[-79.86163,43.27017]},"properties":{"address":"hub_582","latitude":"43.27017","longitude":"-79.86163","name":"Hughson at Picton","capacity":"12","operator":"Hamilton Bike Share"}}]}
{"type":"FeatureCollection","features":[{"type":"Feature","geometry":{"type":"Point","coordinates":[-79.86619,43.25651]},"properties":{"address":"hub_5827","latitude":"43.25651","longitude":"-79.86619","name":"John near King","capacity":"0","operator":"Hamilton Bike Share"}}]}
{"type":"FeatureCollection","features":[{"type":"Feature","geometry":{"type":"Point","coordinates":[-79.86032,43.27605]},"properties":{"address":"hub_583","latitude":"43.27605","longitude":"-79.86032","name":"Discovery Drive","capacity":"10","operator":"Hamilton Bike Share"}}]}
{"type":"FeatureCollection","features":[{"type":"Feature","geometry":{"type":"Point","coordinates":[-79.83548,43.25127]},"properties":{"address":"hub_5836","latitude":"43.25127","longitude":"-79.83548","name":"King at Barnesdale","capacity":"0","operator":"Hamilton Bike Share"}}]}
{"type":"FeatureCollection","features":[{"type":"Feature","geometry":{"type":"Point","coordinates":[-79.83825,43.25137]},"properties":{"address":"hub_5837","latitude":"43.25137","longitude":"-79.83825","name":"King at Sherman","capacity":"0","operator":"Hamilton Bike Share"}}]}
{"type":"FeatureCollection","features":[{"type":"Feature","geometry":{"type":"Point","coordinates":[-79.84635,43.25189]},"properties":{"address":"hub_5838","latitude":"43.25189","longitude":"-79.84635","name":"King at Sanford","capacity":"0","operator":"Hamilton Bike Share"}}]}
{"type":"FeatureCollection","features":[{"type":"Feature","geometry":{"type":"Point","coordinates":[-79.86935,43.2569]},"properties":{"address":"hub_5845","latitude":"43.2569","longitude":"-79.86935","name":"Jackson Square","capacity":"10","operator":"Hamilton Bike Share"}}]}
{"type":"FeatureCollection","features":[{"type":"Feature","geometry":{"type":"Point","coordinates":[-79.84999,43.25645]},"properties":{"address":"hub_5846","latitude":"43.25645","longitude":"-79.84999","name":"Cannon at Steven","capacity":"0","operator":"Hamilton Bike Share"}}]}
{"type":"FeatureCollection","features":[{"type":"Feature","geometry":{"type":"Point","coordinates":[-79.85659,43.27165]},"properties":{"address":"hub_585","latitude":"43.27165","longitude":"-79.85659","name":"Eastwood Arena","capacity":"10","operator":"Hamilton Bike Share"}}]}
{"type":"FeatureCollection","features":[{"type":"Feature","geometry":{"type":"Point","coordinates":[-79.86777,43.24965]},"properties":{"address":"hub_586","latitude":"43.24965","longitude":"-79.86777","name":"Catharine at Forest","capacity":"0","operator":"Hamilton Bike Share"}}]}
{"type":"FeatureCollection","features":[{"type":"Feature","geometry":{"type":"Point","coordinates":[-79.87135,43.2559]},"properties":{"address":"hub_587","latitude":"43.2559","longitude":"-79.87135","name":"Main at Macnab","capacity":"12","operator":"Hamilton Bike Share"}}]}
{"type":"FeatureCollection","features":[{"type":"Feature","geometry":{"type":"Point","coordinates":[-79.85822,43.26202]},"properties":{"address":"hub_588","latitude":"43.26202","longitude":"-79.85822","name":"Ferguson at Barton","capacity":"8","operator":"Hamilton Bike Share"}}]}
{"type":"FeatureCollection","features":[{"type":"Feature","geometry":{"type":"Point","coordinates":[-79.89169,43.28949]},"properties":{"address":"hub_5883","latitude":"43.28949","longitude":"-79.89169","name":"RBG Rock Garden","capacity":"0","operator":"Hamilton Bike Share"}}]}
{"type":"FeatureCollection","features":[{"type":"Feature","geometry":{"type":"Point","coordinates":[-79.8549,43.26663]},"properties":{"address":"hub_589","latitude":"43.26663","longitude":"-79.8549","name":"Ferrie at Ferguson","capacity":"0","operator":"Hamilton Bike Share"}}]}
{"type":"FeatureCollection","features":[{"type":"Feature","geometry":{"type":"Point","coordinates":[-79.8599,43.2586]},"properties":{"address":"hub_590","latitude":"43.2586","longitude":"-79.8599","name":"Ferguson at Cannon","capacity":"10","operator":"Hamilton Bike Share"}}]}
{"type":"FeatureCollection","features":[{"type":"Feature","geometry":{"type":"Point","coordinates":[-79.85683,43.2753]},"properties":{"address":"hub_5903","latitude":"43.2753","longitude":"-79.85683","name":"Pier 8","capacity":"0","operator":"Hamilton Bike Share"}}]}
{"type":"FeatureCollection","features":[{"type":"Feature","geometry":{"type":"Point","coordinates":[-79.86145,43.25519]},"properties":{"address":"hub_591","latitude":"43.25519","longitude":"-79.86145","name":"Ferguson at King William","capacity":"0","operator":"Hamilton Bike Share"}}]}
{"type":"FeatureCollection","features":[{"type":"Feature","geometry":{"type":"Point","coordinates":[-79.85335,43.26121]},"properties":{"address":"hub_593","latitude":"43.26121","longitude":"-79.85335","name":"Victoria at Barton","capacity":"0","operator":"Hamilton Bike Share"}}]}
{"type":"FeatureCollection","features":[{"type":"Feature","geometry":{"type":"Point","coordinates":[-79.85335,43.2573]},"properties":{"address":"hub_594","latitude":"43.2573","longitude":"-79.85335","name":"Cannon at East","capacity":"0","operator":"Hamilton Bike Share"}}]}
{"type":"FeatureCollection","features":[{"type":"Feature","geometry":{"type":"Point","coordinates":[-79.85188,43.24498]},"properties":{"address":"hub_596","latitude":"43.24498","longitude":"-79.85188","name":"Wentworth Stairs","capacity":"0","operator":"Hamilton Bike Share"}}]}
{"type":"FeatureCollection","features":[{"type":"Feature","geometry":{"type":"Point","coordinates":[-79.85508,43.24805]},"properties":{"address":"hub_597","latitude":"43.24805","longitude":"-79.85508","name":"Stinson at Blythe","capacity":"8","operator":"Hamilton Bike Share"}}]}
{"type":"FeatureCollection","features":[{"type":"Feature","geometry":{"type":"Point","coordinates":[-79.86319,43.25183]},"properties":{"address":"hub_598","latitude":"43.25183","longitude":"-79.86319","name":"Hunter at Ferguson","capacity":"0","operator":"Hamilton Bike Share"}}]}
{"type":"FeatureCollection","features":[{"type":"Feature","geometry":{"type":"Point","coordinates":[-79.86411,43.24921]},"properties":{"address":"hub_599","latitude":"43.24921","longitude":"-79.86411","name":"Corktown Park","capacity":"11","operator":"Hamilton Bike Share"}}]}
{"type":"FeatureCollection","features":[{"type":"Feature","geometry":{"type":"Point","coordinates":[-79.8597,43.24952]},"properties":{"address":"hub_601","latitude":"43.24952","longitude":"-79.8597","name":"Stinson at West","capacity":"10","operator":"Hamilton Bike Share"}}]}
{"type":"FeatureCollection","features":[{"type":"Feature","geometry":{"type":"Point","coordinates":[-79.85594,43.25418]},"properties":{"address":"hub_602","latitude":"43.25418","longitude":"-79.85594","name":"King William at Victoria","capacity":"0","operator":"Hamilton Bike Share"}}]}
{"type":"FeatureCollection","features":[{"type":"Feature","geometry":{"type":"Point","coordinates":[-79.84495,43.25893]},"properties":{"address":"hub_603","latitude":"43.25893","longitude":"-79.84495","name":"Barton at Wentworth","capacity":"0","operator":"Hamilton Bike Share"}}]}
{"type":"FeatureCollection","features":[{"type":"Feature","geometry":{"type":"Point","coordinates":[-79.84747,43.25592]},"properties":{"address":"hub_604","latitude":"43.25592","longitude":"-79.84747","name":"Cannon at Wentworth - 96","capacity":"8","operator":"Hamilton Bike Share"}}]}
{"type":"FeatureCollection","features":[{"type":"Feature","geometry":{"type":"Point","coordinates":[-79.8491,43.25201]},"properties":{"address":"hub_605","latitude":"43.25201","longitude":"-79.8491","name":"Wentworth at King","capacity":"0","operator":"Hamilton Bike Share"}}]}
{"type":"FeatureCollection","features":[{"type":"Feature","geometry":{"type":"Point","coordinates":[-79.86633,43.27231]},"properties":{"address":"hub_606","latitude":"43.27231","longitude":"-79.86633","name":"Bay at Macaulay","capacity":"8","operator":"Hamilton Bike Share"}}]}
{"type":"FeatureCollection","features":[{"type":"Feature","geometry":{"type":"Point","coordinates":[-79.86877,43.25235]},"properties":{"address":"hub_607","latitude":"43.25235","longitude":"-79.86877","name":"Haymarket at Hughson","capacity":"10","operator":"Hamilton Bike Share"}}]}
{"type":"FeatureCollection","features":[{"type":"Feature","geometry":{"type":"Point","coordinates":[-79.86603,43.26383]},"properties":{"address":"hub_608","latitude":"43.26383","longitude":"-79.86603","name":"James at Colbourne","capacity":"11","operator":"Hamilton Bike Share"}}]}
{"type":"FeatureCollection","features":[{"type":"Feature","geometry":{"type":"Point","coordinates":[-79.86224,43.25401]},"properties":{"address":"hub_609","latitude":"43.25401","longitude":"-79.86224","name":"Ferguson at King","capacity":"0","operator":"Hamilton Bike Share"}}]}
{"type":"FeatureCollection","features":[{"type":"Feature","geometry":{"type":"Point","coordinates":[-79.84128,43.2551]},"properties":{"address":"hub_610","latitude":"43.2551","longitude":"-79.84128","name":"Cannon at Birch (Powell Park)","capacity":"0","operator":"Hamilton Bike Share"}}]}
{"type":"FeatureCollection","features":[{"type":"Feature","geometry":{"type":"Point","coordinates":[-79.83752,43.25348]},"properties":{"address":"hub_611","latitude":"43.25348","longitude":"-79.83752","name":"Cannon at Sherman","capacity":"8","operator":"Hamilton Bike Share"}}]}
{"type":"FeatureCollection","features":[{"type":"Feature","geometry":{"type":"Point","coordinates":[-79.84931,43.24801]},"properties":{"address":"hub_612","latitude":"43.24801","longitude":"-79.84931","name":"Delaware at Myrtle","capacity":"10","operator":"Hamilton Bike Share"}}]}
{"type":"FeatureCollection","features":[{"type":"Feature","geometry":{"type":"Point","coordinates":[-79.83711,43.24514]},"properties":{"address":"hub_613","latitude":"43.24514","longitude":"-79.83711","name":"Maplewood at Springer","capacity":"10","operator":"Hamilton Bike Share"}}]}
{"type":"FeatureCollection","features":[{"type":"Feature","geometry":{"type":"Point","coordinates":[-79.83038,43.24359]},"properties":{"address":"hub_614","latitude":"43.24359","longitude":"-79.83038","name":"Gage Park","capacity":"20","operator":"Hamilton Bike Share"}}]}
{"type":"FeatureCollection","features":[{"type":"Feature","geometry":{"type":"Point","coordinates":[-79.86861,43.25765]},"properties":{"address":"hub_6148","latitude":"43.25765","longitude":"-79.86861","name":"King William at James","capacity":"0","operator":"Hamilton Bike Share"}}]}
{"type":"FeatureCollection","features":[{"type":"Feature","geometry":{"type":"Point","coordinates":[-79.90747,43.26488]},"properties":{"address":"hub_6157","latitude":"43.26488","longitude":"-79.90747","name":"Westdale Aviary","capacity":"0","operator":"Hamilton Bike Share"}}]}
{"type":"FeatureCollection","features":[{"type":"Feature","geometry":{"type":"Point","coordinates":[-79.91982,43.25806]},"properties":{"address":"hub_622","latitude":"43.25806","longitude":"-79.91982","name":"McMaster Emerson","capacity":"20","operator":"Hamilton Bike Share"}}]}
{"type":"FeatureCollection","features":[{"type":"Feature","geometry":{"type":"Point","coordinates":[-79.81019,43.24914]},"properties":{"address":"hub_6224","latitude":"43.24914","longitude":"-79.81019","name":"RT Steele Park","capacity":"0","operator":"Hamilton Bike Share"}}]}
{"type":"FeatureCollection","features":[{"type":"Feature","geometry":{"type":"Point","coordinates":[-79.81061,43.24425]},"properties":{"address":"hub_6225","latitude":"43.24425","longitude":"-79.81061","name":"Crown Point Parkette","capacity":"0","operator":"Hamilton Bike Share"}}]}
{"type":"FeatureCollection","features":[{"type":"Feature","geometry":{"type":"Point","coordinates":[-79.81845,43.24286]},"properties":{"address":"hub_6226","latitude":"43.24286","longitude":"-79.81845","name":"Main and London - Pipeline Trail Entrance","capacity":"0","operator":"Hamilton Bike Share"}}]}
{"type":"FeatureCollection","features":[{"type":"Feature","geometry":{"type":"Point","coordinates":[-79.81432,43.2377]},"properties":{"address":"hub_6227","latitude":"43.2377","longitude":"-79.81432","name":"A.M Cunningham Elementary School","capacity":"0","operator":"Hamilton Bike Share"}}]}
{"type":"FeatureCollection","features":[{"type":"Feature","geometry":{"type":"Point","coordinates":[-79.81765,43.23505]},"properties":{"address":"hub_6228","latitude":"43.23505","longitude":"-79.81765","name":"King at Graham","capacity":"0","operator":"Hamilton Bike Share"}}]}
{"type":"FeatureCollection","features":[{"type":"Feature","geometry":{"type":"Point","coordinates":[-79.92239,43.25993]},"properties":{"address":"hub_623","latitude":"43.25993","longitude":"-79.92239","name":"McMaster Arthur Bourns","capacity":"15","operator":"Hamilton Bike Share"}}]}
{"type":"FeatureCollection","features":[{"type":"Feature","geometry":{"type":"Point","coordinates":[-79.91829,43.26051]},"properties":{"address":"hub_624","latitude":"43.26051","longitude":"-79.91829","name":"McMaster Health Sciences","capacity":"31","operator":"Hamilton Bike Share"}}]}
{"type":"FeatureCollection","features":[{"type":"Feature","geometry":{"type":"Point","coordinates":[-79.92225,43.26248]},"properties":{"address":"hub_625","latitude":"43.26248","longitude":"-79.92225","name":"McMaster Mary Keyes","capacity":"13","operator":"Hamilton Bike Share"}}]}
{"type":"FeatureCollection","features":[{"type":"Feature","geometry":{"type":"Point","coordinates":[-79.92112,43.26024]},"properties":{"address":"hub_6253","latitude":"43.26024","longitude":"-79.92112","name":"MAC Rack JHE ABB @ College Crescent","capacity":"0","operator":"Hamilton Bike Share"}}]}
{"type":"FeatureCollection","features":[{"type":"Feature","geometry":{"type":"Point","coordinates":[-79.91982,43.26031]},"properties":{"address":"hub_6254","latitude":"43.26031","longitude":"-79.91982","name":"MAC Rack HATCH","capacity":"0","operator":"Hamilton Bike Share"}}]}
{"type":"FeatureCollection","features":[{"type":"Feature","geometry":{"type":"Point","coordinates":[-79.9205,43.25918]},"properties":{"address":"hub_6255","latitude":"43.25918","longitude":"-79.9205","name":"MAC Rack ITB","capacity":"0","operator":"Hamilton Bike Share"}}]}
{"type":"FeatureCollection","features":[{"type":"Feature","geometry":{"type":"Point","coordinates":[-79.91668,43.26064]},"properties":{"address":"hub_6256","latitude":"43.26064","longitude":"-79.91668","name":"MAC Rack MDCL Kingswalk","capacity":"0","operator":"Hamilton Bike Share"}}]}
{"type":"FeatureCollection","features":[{"type":"Feature","geometry":{"type":"Point","coordinates":[-79.917,43.26147]},"properties":{"address":"hub_6257","latitude":"43.26147","longitude":"-79.917","name":"MAC Rack MDCL North","capacity":"0","operator":"Hamilton Bike Share"}}]}
{"type":"FeatureCollection","features":[{"type":"Feature","geometry":{"type":"Point","coordinates":[-79.91881,43.26392]},"properties":{"address":"hub_6259","latitude":"43.26392","longitude":"-79.91881","name":"MAC Rack Edwards Hall","capacity":"0","operator":"Hamilton Bike Share"}}]}
{"type":"FeatureCollection","features":[{"type":"Feature","geometry":{"type":"Point","coordinates":[-79.91872,43.26465]},"properties":{"address":"hub_626","latitude":"43.26465","longitude":"-79.91872","name":"McMaster McKay","capacity":"6","operator":"Hamilton Bike Share"}}]}
{"type":"FeatureCollection","features":[{"type":"Feature","geometry":{"type":"Point","coordinates":[-79.91892,43.26553]},"properties":{"address":"hub_6260","latitude":"43.26553","longitude":"-79.91892","name":"MAC Rack Commons","capacity":"0","operator":"Hamilton Bike Share"}}]}
{"type":"FeatureCollection","features":[{"type":"Feature","geometry":{"type":"Point","coordinates":[-79.91972,43.26584]},"properties":{"address":"hub_6261","latitude":"43.26584","longitude":"-79.91972","name":"MAC Rack Brandon & Woodstock Halls","capacity":"0","operator":"Hamilton Bike Share"}}]}
{"type":"FeatureCollection","features":[{"type":"Feature","geometry":{"type":"Point","coordinates":[-79.91714,43.26474]},"properties":{"address":"hub_6262","latitude":"43.26474","longitude":"-79.91714","name":"MAC Rack The Hub","capacity":"0","operator":"Hamilton Bike Share"}}]}
{"type":"FeatureCollection","features":[{"type":"Feature","geometry":{"type":"Point","coordinates":[-79.91486,43.26546]},"properties":{"address":"hub_6263","latitude":"43.26546","longitude":"-79.91486","name":"MAC Rack PACE","capacity":"0","operator":"Hamilton Bike Share"}}]}
{"type":"FeatureCollection","features":[{"type":"Feature","geometry":{"type":"Point","coordinates":[-79.91941,43.2628]},"properties":{"address":"hub_6264","latitude":"43.2628","longitude":"-79.91941","name":"MAC Rack Willy Dog","capacity":"0","operator":"Hamilton Bike Share"}}]}
{"type":"FeatureCollection","features":[{"type":"Feature","geometry":{"type":"Point","coordinates":[-79.92055,43.26253]},"properties":{"address":"hub_6265","latitude":"43.26253","longitude":"-79.92055","name":"MAC Rack Community Garden","capacity":"0","operator":"Hamilton Bike Share"}}]}
{"type":"FeatureCollection","features":[{"type":"Feature","geometry":{"type":"Point","coordinates":[-79.92267,43.26306]},"properties":{"address":"hub_6266","latitude":"43.26306","longitude":"-79.92267","name":"MAC Rack Mary Keyes East","capacity":"0","operator":"Hamilton Bike Share"}}]}
{"type":"FeatureCollection","features":[{"type":"Feature","geometry":{"type":"Point","coordinates":[-79.92248,43.26404]},"properties":{"address":"hub_6267","latitude":"43.26404","longitude":"-79.92248","name":"MAC Rack Bates Hall","capacity":"0","operator":"Hamilton Bike Share"}}]}
{"type":"FeatureCollection","features":[{"type":"Feature","geometry":{"type":"Point","coordinates":[-79.92257,43.26178]},"properties":{"address":"hub_6268","latitude":"43.26178","longitude":"-79.92257","name":"MAC Rack Go Terminal","capacity":"0","operator":"Hamilton Bike Share"}}]}
{"type":"FeatureCollection","features":[{"type":"Feature","geometry":{"type":"Point","coordinates":[-79.92101,43.26076]},"properties":{"address":"hub_6269","latitude":"43.26076","longitude":"-79.92101","name":"MAC Rack ABB East","capacity":"0","operator":"Hamilton Bike Share"}}]}
{"type":"FeatureCollection","features":[{"type":"Feature","geometry":{"type":"Point","coordinates":[-79.91989,43.26105]},"properties":{"address":"hub_6270","latitude":"43.26105","longitude":"-79.91989","name":"MAC Rack JHE","capacity":"0","operator":"Hamilton Bike Share"}}]}
{"type":"FeatureCollection","features":[{"type":"Feature","geometry":{"type":"Point","coordinates":[-79.92101,43.25875]},"properties":{"address":"hub_6271","latitude":"43.25875","longitude":"-79.92101","name":"MAC Rack ITB Terrace","capacity":"0","operator":"Hamilton Bike Share"}}]}
{"type":"FeatureCollection","features":[{"type":"Feature","geometry":{"type":"Point","coordinates":[-79.91999,43.26214]},"properties":{"address":"hub_6272","latitude":"43.26214","longitude":"-79.91999","name":"MAC Rack BSB","capacity":"0","operator":"Hamilton Bike Share"}}]}
{"type":"FeatureCollection","features":[{"type":"Feature","geometry":{"type":"Point","coordinates":[-79.9224,43.26071]},"properties":{"address":"hub_6273","latitude":"43.26071","longitude":"-79.9224","name":"MAC Rack Thode Library","capacity":"0","operator":"Hamilton Bike Share"}}]}
{"type":"FeatureCollection","features":[{"type":"Feature","geometry":{"type":"Point","coordinates":[-79.92146,43.25915]},"properties":{"address":"hub_6274","latitude":"43.25915","longitude":"-79.92146","name":"MAC Rack ITB/IAHS Parking Lot","capacity":"0","operator":"Hamilton Bike Share"}}]}
{"type":"FeatureCollection","features":[{"type":"Feature","geometry":{"type":"Point","coordinates":[-79.91866,43.26592]},"properties":{"address":"hub_6275","latitude":"43.26592","longitude":"-79.91866","name":"MAC Rack Hedden Hall","capacity":"0","operator":"Hamilton Bike Share"}}]}
{"type":"FeatureCollection","features":[{"type":"Feature","geometry":{"type":"Point","coordinates":[-79.92134,43.26223]},"properties":{"address":"hub_6276","latitude":"43.26223","longitude":"-79.92134","name":"MAC Rack General Science Building","capacity":"0","operator":"Hamilton Bike Share"}}]}
{"type":"FeatureCollection","features":[{"type":"Feature","geometry":{"type":"Point","coordinates":[-79.92209,43.26306]},"properties":{"address":"hub_6277","latitude":"43.26306","longitude":"-79.92209","name":"MAC Rack West Quad","capacity":"0","operator":"Hamilton Bike Share"}}]}
{"type":"FeatureCollection","features":[{"type":"Feature","geometry":{"type":"Point","coordinates":[-79.91858,43.26513]},"properties":{"address":"hub_6278","latitude":"43.26513","longitude":"-79.91858","name":"MAC Rack PGCLL","capacity":"0","operator":"Hamilton Bike Share"}}]}
{"type":"FeatureCollection","features":[{"type":"Feature","geometry":{"type":"Point","coordinates":[-79.91659,43.26222]},"properties":{"address":"hub_6279","latitude":"43.26222","longitude":"-79.91659","name":"MAC Rack LR Wilson","capacity":"0","operator":"Hamilton Bike Share"}}]}
{"type":"FeatureCollection","features":[{"type":"Feature","geometry":{"type":"Point","coordinates":[-79.91656,43.26349]},"properties":{"address":"hub_6280","latitude":"43.26349","longitude":"-79.91656","name":"MAC Rack Lot B","capacity":"0","operator":"Hamilton Bike Share"}}]}
{"type":"FeatureCollection","features":[{"type":"Feature","geometry":{"type":"Point","coordinates":[-79.91635,43.26381]},"properties":{"address":"hub_6281","latitude":"43.26381","longitude":"-79.91635","name":"MAC Rack DeGroote School of Business","capacity":"0","operator":"Hamilton Bike Share"}}]}
{"type":"FeatureCollection","features":[{"type":"Feature","geometry":{"type":"Point","coordinates":[-79.91796,43.26459]},"properties":{"address":"hub_6282","latitude":"43.26459","longitude":"-79.91796","name":"MAC Rack TSH","capacity":"0","operator":"Hamilton Bike Share"}}]}
{"type":"FeatureCollection","features":[{"type":"Feature","geometry":{"type":"Point","coordinates":[-79.91938,43.25939]},"properties":{"address":"hub_6283","latitude":"43.25939","longitude":"-79.91938","name":"MAC Rack CRL North","capacity":"0","operator":"Hamilton Bike Share"}}]}
{"type":"FeatureCollection","features":[{"type":"Feature","geometry":{"type":"Point","coordinates":[-79.91769,43.26163]},"properties":{"address":"hub_6284","latitude":"43.26163","longitude":"-79.91769","name":"MAC Rack Divinity College East","capacity":"0","operator":"Hamilton Bike Share"}}]}
{"type":"FeatureCollection","features":[{"type":"Feature","geometry":{"type":"Point","coordinates":[-79.91757,43.26142]},"properties":{"address":"hub_6285","latitude":"43.26142","longitude":"-79.91757","name":"MAC Rack Temporary Lecture Theater","capacity":"0","operator":"Hamilton Bike Share"}}]}
{"type":"FeatureCollection","features":[{"type":"Feature","geometry":{"type":"Point","coordinates":[-79.91406,43.26615]},"properties":{"address":"hub_6286","latitude":"43.26615","longitude":"-79.91406","name":"MAC Rack Alumni Field","capacity":"0","operator":"Hamilton Bike Share"}}]}
{"type":"FeatureCollection","features":[{"type":"Feature","geometry":{"type":"Point","coordinates":[-79.91944,43.25897]},"properties":{"address":"hub_6287","latitude":"43.25897","longitude":"-79.91944","name":"MAC Rack CRL South","capacity":"0","operator":"Hamilton Bike Share"}}]}
{"type":"FeatureCollection","features":[{"type":"Feature","geometry":{"type":"Point","coordinates":[-79.92759,43.26354]},"properties":{"address":"hub_6289","latitude":"43.26354","longitude":"-79.92759","name":"MAC Rack Childrens Centre","capacity":"0","operator":"Hamilton Bike Share"}}]}
{"type":"FeatureCollection","features":[{"type":"Feature","geometry":{"type":"Point","coordinates":[-79.92896,43.26243]},"properties":{"address":"hub_6290","latitude":"43.26243","longitude":"-79.92896","name":"McMaster Parking Lot M","capacity":"0","operator":"Hamilton Bike Share"}}]}
{"type":"FeatureCollection","features":[{"type":"Feature","geometry":{"type":"Point","coordinates":[-79.9144,43.26588]},"properties":{"address":"hub_6291","latitude":"43.26588","longitude":"-79.9144","name":"MAC Rack HPA","capacity":"0","operator":"Hamilton Bike Share"}}]}
{"type":"FeatureCollection","features":[{"type":"Feature","geometry":{"type":"Point","coordinates":[-79.91712,43.2606]},"properties":{"address":"hub_6293","latitude":"43.2606","longitude":"-79.91712","name":"Mac Rack Kingswalk Bridge","capacity":"0","operator":"Hamilton Bike Share"}}]}
{"type":"FeatureCollection","features":[{"type":"Feature","geometry":{"type":"Point","coordinates":[-79.91985,43.25883]},"properties":{"address":"hub_6308","latitude":"43.25883","longitude":"-79.91985","name":"MAC Rack ETB","capacity":"0","operator":"Hamilton Bike Share"}}]}
{"type":"FeatureCollection","features":[{"type":"Feature","geometry":{"type":"Point","coordinates":[-79.86963,43.25335]},"properties":{"address":"hub_631","latitude":"43.25335","longitude":"-79.86963","name":"Hunter GO Centre","capacity":"10","operator":"Hamilton Bike Share"}}]}
{"type":"FeatureCollection","features":[{"type":"Feature","geometry":{"type":"Point","coordinates":[-79.92082,43.26134]},"properties":{"address":"hub_6340","latitude":"43.26134","longitude":"-79.92082","name":"MAC Rack Nuclear Research","capacity":"0","operator":"Hamilton Bike Share"}}]}
{"type":"FeatureCollection","features":[{"type":"Feature","geometry":{"type":"Point","coordinates":[-79.91731,43.26103]},"properties":{"address":"hub_6341","latitude":"43.26103","longitude":"-79.91731","name":"MAC Rack MDCL Side Entrance","capacity":"0","operator":"Hamilton Bike Share"}}]}
{"type":"FeatureCollection","features":[{"type":"Feature","geometry":{"type":"Point","coordinates":[-79.91672,43.26708]},"properties":{"address":"hub_6342","latitude":"43.26708","longitude":"-79.91672","name":"Les Prince Hall Rack","capacity":"0","operator":"Hamilton Bike Share"}}]}
{"type":"FeatureCollection","features":[{"type":"Feature","geometry":{"type":"Point","coordinates":[-79.92096,43.26297]},"properties":{"address":"hub_6344","latitude":"43.26297","longitude":"-79.92096","name":"MAC Rack Phoenix Patio","capacity":"0","operator":"Hamilton Bike Share"}}]}
{"type":"FeatureCollection","features":[{"type":"Feature","geometry":{"type":"Point","coordinates":[-79.91978,43.26418]},"properties":{"address":"hub_6345","latitude":"43.26418","longitude":"-79.91978","name":"MAC Rack The Buttery","capacity":"0","operator":"Hamilton Bike Share"}}]}
{"type":"FeatureCollection","features":[{"type":"Feature","geometry":{"type":"Point","coordinates":[-79.91849,43.26085]},"properties":{"address":"hub_6346","latitude":"43.26085","longitude":"-79.91849","name":"MAC Rack Greenhouse","capacity":"0","operator":"Hamilton Bike Share"}}]}
{"type":"FeatureCollection","features":[{"type":"Feature","geometry":{"type":"Point","coordinates":[-79.91873,43.26035]},"properties":{"address":"hub_6347","latitude":"43.26035","longitude":"-79.91873","name":"MAC Rack Health Sciences West","capacity":"0","operator":"Hamilton Bike Share"}}]}
{"type":"FeatureCollection","features":[{"type":"Feature","geometry":{"type":"Point","coordinates":[-79.91799,43.26074]},"properties":{"address":"hub_6348","latitude":"43.26074","longitude":"-79.91799","name":"MAC Rack Life Sciences","capacity":"0","operator":"Hamilton Bike Share"}}]}
{"type":"FeatureCollection","features":[{"type":"Feature","geometry":{"type":"Point","coordinates":[-79.91679,43.26539]},"properties":{"address":"hub_6349","latitude":"43.26539","longitude":"-79.91679","name":"Mac Rack The Pulse","capacity":"0","operator":"Hamilton Bike Share"}}]}
{"type":"FeatureCollection","features":[{"type":"Feature","geometry":{"type":"Point","coordinates":[-79.91715,43.26264]},"properties":{"address":"hub_707","latitude":"43.26264","longitude":"-79.91715","name":"McMaster Student Centre","capacity":"25","operator":"Hamilton Bike Share"}}]}
{"type":"FeatureCollection","features":[{"type":"Feature","geometry":{"type":"Point","coordinates":[-79.8694,43.25894]},"properties":{"address":"hub_708","latitude":"43.25894","longitude":"-79.8694","name":"York at Macnab","capacity":"29","operator":"Hamilton Bike Share"}}]}
{"type":"FeatureCollection","features":[{"type":"Feature","geometry":{"type":"Point","coordinates":[-79.87497,43.25162]},"properties":{"address":"hub_709","latitude":"43.25162","longitude":"-79.87497","name":"Park at Robinson","capacity":"10","operator":"Hamilton Bike Share"}}]}
{"type":"FeatureCollection","features":[{"type":"Feature","geometry":{"type":"Point","coordinates":[-79.85621,43.25785]},"properties":{"address":"hub_712","latitude":"43.25785","longitude":"-79.85621","name":"West at Cannon","capacity":"10","operator":"Hamilton Bike Share"}}]}
{"type":"FeatureCollection","features":[{"type":"Feature","geometry":{"type":"Point","coordinates":[-79.89456,43.27295]},"properties":{"address":"hub_765","latitude":"43.27295","longitude":"-79.89456","name":"Princess Point","capacity":"12","operator":"Hamilton Bike Share"}}]}
{"type":"FeatureCollection","features":[{"type":"Feature","geometry":{"type":"Point","coordinates":[-79.89965,43.25262]},"properties":{"address":"hub_778","latitude":"43.25262","longitude":"-79.89965","name":"Aberdeen at Studholme","capacity":"13","operator":"Hamilton Bike Share"}}]}
{"type":"FeatureCollection","features":[{"type":"Feature","geometry":{"type":"Point","coordinates":[-79.87339,43.2543]},"properties":{"address":"hub_779","latitude":"43.2543","longitude":"-79.87339","name":"Hunter at Park","capacity":"10","operator":"Hamilton Bike Share"}}]}
{"type":"FeatureCollection","features":[{"type":"Feature","geometry":{"type":"Point","coordinates":[-79.86723,43.2545]},"properties":{"address":"hub_780","latitude":"43.2545","longitude":"-79.86723","name":"John at Main","capacity":"10","operator":"Hamilton Bike Share"}}]}
{"type":"FeatureCollection","features":[{"type":"Feature","geometry":{"type":"Point","coordinates":[-79.87719,43.25913]},"properties":{"address":"hub_802","latitude":"43.25913","longitude":"-79.87719","name":"Hess at king","capacity":"12","operator":"Hamilton Bike Share"}}]}
{"type":"FeatureCollection","features":[{"type":"Feature","geometry":{"type":"Point","coordinates":[-79.92981,43.25544]},"properties":{"address":"hub_830","latitude":"43.25544","longitude":"-79.92981","name":"Rifle Range at Rail Trail","capacity":"16","operator":"Hamilton Bike Share"}}]}
{"type":"FeatureCollection","features":[{"type":"Feature","geometry":{"type":"Point","coordinates":[-79.86897,43.25164]},"properties":{"address":"hub_866","latitude":"43.25164","longitude":"-79.86897","name":"Augusta at John","capacity":"8","operator":"Hamilton Bike Share"}}]}
{"type":"FeatureCollection","features":[{"type":"Feature","geometry":{"type":"Point","coordinates":[-79.87936,43.25816]},"properties":{"address":"hub_867","latitude":"43.25816","longitude":"-79.87936","name":"Queen at George","capacity":"6","operator":"Hamilton Bike Share"}}]}
{"type":"FeatureCollection","features":[{"type":"Feature","geometry":{"type":"Point","coordinates":[-79.91588,43.26266]},"properties":{"address":"hub_894","latitude":"43.26266","longitude":"-79.91588","name":"Forsyth at Sterling","capacity":"36","operator":"Hamilton Bike Share"}}]}
{"type":"FeatureCollection","features":[{"type":"Feature","geometry":{"type":"Point","coordinates":[-79.87144,43.25164]},"properties":{"address":"hub_903","latitude":"43.25164","longitude":"-79.87144","name":"Duke at James","capacity":"6","operator":"Hamilton Bike Share"}}]}
{"type":"FeatureCollection","features":[{"type":"Feature","geometry":{"type":"Point","coordinates":[-79.86666,43.257]},"properties":{"address":"hub_904","latitude":"43.257","longitude":"-79.86666","name":"King William at Hughson","capacity":"0","operator":"Hamilton Bike Share"}}]}
{"type":"FeatureCollection","features":[{"type":"Feature","geometry":{"type":"Point","coordinates":[-79.8531,43.2519]},"properties":{"address":"hub_905","latitude":"43.2519","longitude":"-79.8531","name":"Tisdale at Main","capacity":"0","operator":"Hamilton Bike Share"}}]}
{"type":"FeatureCollection","features":[{"type":"Feature","geometry":{"type":"Point","coordinates":[-79.89268,43.25936]},"properties":{"address":"hub_921","latitude":"43.25936","longitude":"-79.89268","name":"Frid at Main","capacity":"10","operator":"Hamilton Bike Share"}}]}
{"type":"FeatureCollection","features":[{"type":"Feature","geometry":{"type":"Point","coordinates":[-79.86161,43.27385]},"properties":{"address":"hub_924","latitude":"43.27385","longitude":"-79.86161","name":"James at Guise","capacity":"11","operator":"Hamilton Bike Share"}}]}
{"type":"FeatureCollection","features":[{"type":"Feature","geometry":{"type":"Point","coordinates":[-79.83162,43.25171]},"properties":{"address":"hub_945","latitude":"43.25171","longitude":"-79.83162","name":"Stadium","capacity":"15","operator":"Hamilton Bike Share"}}]}
{"type":"FeatureCollection","features":[{"type":"Feature","geometry":{"type":"Point","coordinates":[-79.86563,43.26606]},"properties":{"address":"hub_959","latitude":"43.26606","longitude":"-79.86563","name":"West Harbour GO Station","capacity":"10","operator":"Hamilton Bike Share"}}]}
{"type":"FeatureCollection","features":[{"type":"Feature","geometry":{"type":"Point","coordinates":[-79.86712,43.27236]},"properties":{"address":"hub_960","latitude":"43.27236","longitude":"-79.86712","name":"Pier 4","capacity":"20","operator":"Hamilton Bike Share"}}]}